{
    "links": {
        "self": "http://www.neowsapp.com/rest/v1/neo/3787083?api_key=iIulBulltgU6a56xZRHN4H3l9WmuAYTsLGpBGhQ2"
    },
    "id": "3787083",
    "neo_reference_id": "3787083",
    "name": "(2017 UB1)",
    "designation": "2017 UB1",
    "nasa_jpl_url": "http://ssd.jpl.nasa.gov/sbdb.cgi?sstr=3787083",
    "absolute_magnitude_h": 25.4,
    "estimated_diameter": {
        "kilometers": {
            "estimated_diameter_min": 0.022108281,
            "estimated_diameter_max": 0.0494356193
        },
        "meters": {
            "estimated_diameter_min": 22.1082810359,
            "estimated_diameter_max": 49.435619262
        },
        "miles": {
            "estimated_diameter_min": 0.0137374447,
            "estimated_diameter_max": 0.0307178602
        },
        "feet": {
            "estimated_diameter_min": 72.5337327539,
            "estimated_diameter_max": 162.1903570994
        }
    },
    "is_potentially_hazardous_asteroid": false,
    "close_approach_data": [
        {
            "close_approach_date": "2004-10-15",
            "close_approach_date_full": "2004-Oct-15 12:58",
            "epoch_date_close_approach": 1097845080000,
            "relative_velocity": {
                "kilometers_per_second": "9.5570069799",
                "kilometers_per_hour": "34405.2251275783",
                "miles_per_hour": "21378.0689132999"
            },
            "miss_distance": {
                "astronomical": "0.1431757734",
                "lunar": "55.6953758526",
                "kilometers": "21418790.736242658",
                "miles": "13309019.4160703604"
            },
            "orbiting_body": "Earth"
        },
        {
            "close_approach_date": "2017-10-19",
            "close_approach_date_full": "2017-Oct-19 06:20",
            "epoch_date_close_approach": 1508394000000,
            "relative_velocity": {
                "kilometers_per_second": "8.2049130454",
                "kilometers_per_hour": "29537.6869633365",
                "miles_per_hour": "18353.5699911909"
            },
            "miss_distance": {
                "astronomical": "0.0822788714",
                "lunar": "32.0064809746",
                "kilometers": "12308743.907443918",
                "miles": "7648298.8077573484"
            },
            "orbiting_body": "Earth"
        },
        {
            "close_approach_date": "2030-10-21",
            "close_approach_date_full": "2030-Oct-21 20:04",
            "epoch_date_close_approach": 1918843440000,
            "relative_velocity": {
                "kilometers_per_second": "8.305674268",
                "kilometers_per_hour": "29900.4273649448",
                "miles_per_hour": "18578.9627701792"
            },
            "miss_distance": {
                "astronomical": "0.1806378712",
                "lunar": "70.2681318968",
                "kilometers": "27023040.772854344",
                "miles": "16791338.9115201872"
            },
            "orbiting_body": "Earth"
        }
    ],
    "orbital_data": {
        "orbit_id": "3",
        "orbit_determination_date": "2017-11-19 06:20:27",
        "first_observation_date": "2017-10-16",
        "last_observation_date": "2017-11-17",
        "data_arc_in_days": 32,
        "observations_used": 27,
        "orbit_uncertainty": "7",
        "minimum_orbit_intersection": ".0817943",
        "jupiter_tisserand_invariant": "4.730",
        "epoch_osculation": "2459000.5",
        "eccentricity": ".2348266826525925",
        "semi_major_axis": "1.383847221802241",
        "inclination": "14.73277705696137",
        "ascending_node_longitude": "201.4281323018513",
        "orbital_period": "594.6078605587591",
        "perihelion_distance": "1.058882969408415",
        "perihelion_argument": "207.0981060814552",
        "aphelion_distance": "1.708811474196068",
        "perihelion_time": "2459258.425129114014",
        "mean_anomaly": "203.8415422329095",
        "mean_motion": ".6054410374960471",
        "equinox": "J2000",
        "orbit_class": {
            "orbit_class_type": "AMO",
            "orbit_class_description": "Near-Earth asteroid orbits similar to that of 1221 Amor",
            "orbit_class_range": "1.017 AU < q (perihelion) < 1.3 AU"
        }
    },
    "is_sentry_object": false
}